[{"OBJECT_NAME":"STARLINK-11414 [DTC]","OBJECT_ID":"2024-209K","EPOCH":"2026-03-14T22:22:50.359584","MEAN_MOTION":15.69764733,"ECCENTRICITY":0.00015041,"INCLINATION":53.1575,"RA_OF_ASC_NODE":345.2442,"ARG_OF_PERICENTER":20.519,"MEAN_ANOMALY":339.5888,"EPHEMERIS_TYPE":0,"CLASSIFICATION_TYPE":"U","NORAD_CAT_ID":61948,"ELEMENT_SET_NO":999,"REV_AT_EPOCH":7754,"BSTAR":0.0017298036,"MEAN_MOTION_DOT":0.00214981,"MEAN_MOTION_DDOT":0},{"OBJECT_NAME":"STARLINK-11424 [DTC]","OBJECT_ID":"2024-209L","EPOCH":"2026-03-14T22:29:54.302784","MEAN_MOTION":15.69727165,"ECCENTRICITY":0.00012264,"INCLINATION":53.1577,"RA_OF_ASC_NODE":345.2778,"ARG_OF_PERICENTER":24.3108,"MEAN_ANOMALY":335.7967,"EPHEMERIS_TYPE":0,"CLASSIFICATION_TYPE":"U","NORAD_CAT_ID":61949,"ELEMENT_SET_NO":999,"REV_AT_EPOCH":7750,"BSTAR":0.0017404394,"MEAN_MOTION_DOT":0.00215996,"MEAN_MOTION_DDOT":0},{"OBJECT_NAME":"STARLINK-11423 [DTC]","OBJECT_ID":"2024-209M","EPOCH":"2026-03-14T22:44:02.357664","MEAN_MOTION":15.69700299,"ECCENTRICITY":0.0001216,"INCLINATION":53.1578,"RA_OF_ASC_NODE":345.3454,"ARG_OF_PERICENTER":38.6742,"MEAN_ANOMALY":321.4363,"EPHEMERIS_TYPE":0,"CLASSIFICATION_TYPE":"U","NORAD_CAT_ID":61950,"ELEMENT_SET_NO":999,"REV_AT_EPOCH":7754,"BSTAR":0.001887755,"MEAN_MOTION_DOT":0.00234599,"MEAN_MOTION_DDOT":0},{"OBJECT_NAME":"STARLINK-11395 [DTC]","OBJECT_ID":"2024-209N","EPOCH":"2026-03-14T22:36:57.111552","MEAN_MOTION":15.69674692,"ECCENTRICITY":0.00012783,"INCLINATION":53.1576,"RA_OF_ASC_NODE":345.3095,"ARG_OF_PERICENTER":23.349,"MEAN_ANOMALY":336.7586,"EPHEMERIS_TYPE":0,"CLASSIFICATION_TYPE":"U","NORAD_CAT_ID":61951,"ELEMENT_SET_NO":999,"REV_AT_EPOCH":7750,"BSTAR":0.0022713578,"MEAN_MOTION_DOT":0.00283789,"MEAN_MOTION_DDOT":0},{"OBJECT_NAME":"STARLINK-32572","OBJECT_ID":"2024-209P","EPOCH":"2026-03-14T10:01:39.595296","MEAN_MOTION":15.30211351,"ECCENTRICITY":0.00011444,"INCLINATION":53.1583,"RA_OF_ASC_NODE":120.2423,"ARG_OF_PERICENTER":68.4996,"MEAN_ANOMALY":291.6126,"EPHEMERIS_TYPE":0,"CLASSIFICATION_TYPE":"U","NORAD_CAT_ID":61952,"ELEMENT_SET_NO":999,"REV_AT_EPOCH":7562,"BSTAR":0.00073688949,"MEAN_MOTION_DOT":0.00021536,"MEAN_MOTION_DDOT":0},{"OBJECT_NAME":"STARLINK-32585","OBJECT_ID":"2024-209Q","EPOCH":"2026-03-14T20:20:41.387136","MEAN_MOTION":15.30207057,"ECCENTRICITY":0.0001513,"INCLINATION":53.1603,"RA_OF_ASC_NODE":118.6522,"ARG_OF_PERICENTER":90.6783,"MEAN_ANOMALY":269.4391,"EPHEMERIS_TYPE":0,"CLASSIFICATION_TYPE":"U","NORAD_CAT_ID":61953,"ELEMENT_SET_NO":999,"REV_AT_EPOCH":7568,"BSTAR":0.00069224615,"MEAN_MOTION_DOT":0.00020203,"MEAN_MOTION_DDOT":0},{"OBJECT_NAME":"STARLINK-32574","OBJECT_ID":"2024-209R","EPOCH":"2026-03-14T12:45:38.829888","MEAN_MOTION":15.30134995,"ECCENTRICITY":8.856e-5,"INCLINATION":53.1596,"RA_OF_ASC_NODE":120.2369,"ARG_OF_PERICENTER":95.7645,"MEAN_ANOMALY":264.3457,"EPHEMERIS_TYPE":0,"CLASSIFICATION_TYPE":"U","NORAD_CAT_ID":61954,"ELEMENT_SET_NO":999,"REV_AT_EPOCH":7565,"BSTAR":0.00097700453,"MEAN_MOTION_DOT":0.0002863,"MEAN_MOTION_DDOT":0},{"OBJECT_NAME":"STARLINK-32583","OBJECT_ID":"2024-209S","EPOCH":"2026-03-14T12:21:18.417600","MEAN_MOTION":15.30207364,"ECCENTRICITY":0.00011971,"INCLINATION":53.1593,"RA_OF_ASC_NODE":120.1297,"ARG_OF_PERICENTER":81.0732,"MEAN_ANOMALY":279.0404,"EPHEMERIS_TYPE":0,"CLASSIFICATION_TYPE":"U","NORAD_CAT_ID":61955,"ELEMENT_SET_NO":999,"REV_AT_EPOCH":7565,"BSTAR":0.00083333586,"MEAN_MOTION_DOT":0.00024409,"MEAN_MOTION_DDOT":0},{"OBJECT_NAME":"STARLINK-32273","OBJECT_ID":"2024-209T","EPOCH":"2026-03-14T19:33:34.814592","MEAN_MOTION":15.30208214,"ECCENTRICITY":0.00011694,"INCLINATION":53.1581,"RA_OF_ASC_NODE":118.4479,"ARG_OF_PERICENTER":82.7288,"MEAN_ANOMALY":277.3846,"EPHEMERIS_TYPE":0,"CLASSIFICATION_TYPE":"U","NORAD_CAT_ID":61956,"ELEMENT_SET_NO":999,"REV_AT_EPOCH":7568,"BSTAR":0.00095942541,"MEAN_MOTION_DOT":0.00028171,"MEAN_MOTION_DDOT":0},{"OBJECT_NAME":"STARLINK-32359","OBJECT_ID":"2024-209U","EPOCH":"2026-03-14T20:02:27.239136","MEAN_MOTION":15.30215464,"ECCENTRICITY":0.00013365,"INCLINATION":53.1596,"RA_OF_ASC_NODE":118.573,"ARG_OF_PERICENTER":92.051,"MEAN_ANOMALY":268.0644,"EPHEMERIS_TYPE":0,"CLASSIFICATION_TYPE":"U","NORAD_CAT_ID":61957,"ELEMENT_SET_NO":999,"REV_AT_EPOCH":7570,"BSTAR":0.00095172603,"MEAN_MOTION_DOT":0.00027948,"MEAN_MOTION_DDOT":0},{"OBJECT_NAME":"STARLINK-32566","OBJECT_ID":"2024-209V","EPOCH":"2026-03-14T10:04:42.187008","MEAN_MOTION":15.3019845,"ECCENTRICITY":0.00011053,"INCLINATION":53.1578,"RA_OF_ASC_NODE":120.2521,"ARG_OF_PERICENTER":78.3034,"MEAN_ANOMALY":281.8091,"EPHEMERIS_TYPE":0,"CLASSIFICATION_TYPE":"U","NORAD_CAT_ID":61958,"ELEMENT_SET_NO":999,"REV_AT_EPOCH":7564,"BSTAR":0.00089740038,"MEAN_MOTION_DOT":0.00026312,"MEAN_MOTION_DDOT":0},{"OBJECT_NAME":"STARLINK-32499","OBJECT_ID":"2024-210A","EPOCH":"2026-03-14T21:56:24.957600","MEAN_MOTION":15.27594094,"ECCENTRICITY":8.824e-5,"INCLINATION":42.9984,"RA_OF_ASC_NODE":149.9234,"ARG_OF_PERICENTER":278.4355,"MEAN_ANOMALY":81.6396,"EPHEMERIS_TYPE":0,"CLASSIFICATION_TYPE":"U","NORAD_CAT_ID":61959,"ELEMENT_SET_NO":999,"REV_AT_EPOCH":7572,"BSTAR":0.001356496,"MEAN_MOTION_DOT":0.00037271,"MEAN_MOTION_DDOT":0},{"OBJECT_NAME":"STARLINK-32372","OBJECT_ID":"2024-210B","EPOCH":"2026-03-14T22:07:32.058048","MEAN_MOTION":15.27575786,"ECCENTRICITY":6.346e-5,"INCLINATION":43.0016,"RA_OF_ASC_NODE":149.9833,"ARG_OF_PERICENTER":289.7863,"MEAN_ANOMALY":70.292,"EPHEMERIS_TYPE":0,"CLASSIFICATION_TYPE":"U","NORAD_CAT_ID":61960,"ELEMENT_SET_NO":999,"REV_AT_EPOCH":7558,"BSTAR":0.00097138525,"MEAN_MOTION_DOT":0.00026561,"MEAN_MOTION_DDOT":0},{"OBJECT_NAME":"STARLINK-32452","OBJECT_ID":"2024-210C","EPOCH":"2026-03-14T12:56:55.919904","MEAN_MOTION":15.27622123,"ECCENTRICITY":0.00022339,"INCLINATION":43.0003,"RA_OF_ASC_NODE":145.3444,"ARG_OF_PERICENTER":252.9251,"MEAN_ANOMALY":107.1356,"EPHEMERIS_TYPE":0,"CLASSIFICATION_TYPE":"U","NORAD_CAT_ID":61961,"ELEMENT_SET_NO":999,"REV_AT_EPOCH":7573,"BSTAR":0.0018005544,"MEAN_MOTION_DOT":0.00049685,"MEAN_MOTION_DDOT":0},{"OBJECT_NAME":"STARLINK-32458","OBJECT_ID":"2024-210D","EPOCH":"2026-03-14T12:21:19.285920","MEAN_MOTION":15.27625284,"ECCENTRICITY":0.00016904,"INCLINATION":43.0009,"RA_OF_ASC_NODE":138.2373,"ARG_OF_PERICENTER":268.7737,"MEAN_ANOMALY":91.2921,"EPHEMERIS_TYPE":0,"CLASSIFICATION_TYPE":"U","NORAD_CAT_ID":61962,"ELEMENT_SET_NO":999,"REV_AT_EPOCH":7581,"BSTAR":0.0020039069,"MEAN_MOTION_DOT":0.00055373,"MEAN_MOTION_DDOT":0},{"OBJECT_NAME":"STARLINK-32487","OBJECT_ID":"2024-210E","EPOCH":"2026-03-14T14:59:17.845440","MEAN_MOTION":15.27625703,"ECCENTRICITY":0.00015476,"INCLINATION":42.9992,"RA_OF_ASC_NODE":152.0408,"ARG_OF_PERICENTER":273.8561,"MEAN_ANOMALY":86.2113,"EPHEMERIS_TYPE":0,"CLASSIFICATION_TYPE":"U","NORAD_CAT_ID":61963,"ELEMENT_SET_NO":999,"REV_AT_EPOCH":7566,"BSTAR":0.0015329548,"MEAN_MOTION_DOT":0.00042223,"MEAN_MOTION_DDOT":0}]
