STARLINK-11414 [DTC]    
1 61948U 24209K   26073.93252731  .00214981  00000+0  17298-2 0  9998
2 61948  53.1575 345.2442 0001504  20.5190 339.5888 15.69764733 77545
STARLINK-11424 [DTC]    
1 61949U 24209L   26073.93743406  .00215996  00000+0  17404-2 0  9999
2 61949  53.1577 345.2778 0001226  24.3108 335.7967 15.69727165 77502
STARLINK-11423 [DTC]    
1 61950U 24209M   26073.94724951  .00234599  00000+0  18878-2 0  9992
2 61950  53.1578 345.3454 0001216  38.6742 321.4363 15.69700299 77543
STARLINK-11395 [DTC]    
1 61951U 24209N   26073.94232768  .00283789  00000+0  22714-2 0  9992
2 61951  53.1576 345.3095 0001278  23.3490 336.7586 15.69674692 77501
STARLINK-32572          
1 61952U 24209P   26073.41781939  .00021536  00000+0  73689-3 0  9992
2 61952  53.1583 120.2423 0001144  68.4996 291.6126 15.30211351 75625
STARLINK-32585          
1 61953U 24209Q   26073.84770124  .00020203  00000+0  69225-3 0  9995
2 61953  53.1603 118.6522 0001513  90.6783 269.4391 15.30207057 75682
STARLINK-32574          
1 61954U 24209R   26073.53169942  .00028630  00000+0  97700-3 0  9993
2 61954  53.1596 120.2369 0000885  95.7645 264.3457 15.30134995 75650
STARLINK-32583          
1 61955U 24209S   26073.51479650  .00024409  00000+0  83334-3 0  9990
2 61955  53.1593 120.1297 0001197  81.0732 279.0404 15.30207364 75655
STARLINK-32273          
1 61956U 24209T   26073.81498628  .00028171  00000+0  95943-3 0  9999
2 61956  53.1581 118.4479 0001169  82.7288 277.3846 15.30208214 75687
STARLINK-32359          
1 61957U 24209U   26073.83503749  .00027948  00000+0  95173-3 0  9999
2 61957  53.1596 118.5730 0001336  92.0510 268.0644 15.30215464 75704
STARLINK-32566          
1 61958U 24209V   26073.41993272  .00026312  00000+0  89740-3 0  9995
2 61958  53.1578 120.2521 0001105  78.3034 281.8091 15.30198450 75642
STARLINK-32499          
1 61959U 24210A   26073.91417775  .00037271  00000+0  13565-2 0  9999
2 61959  42.9984 149.9234 0000882 278.4355  81.6396 15.27594094 75722
STARLINK-32372          
1 61960U 24210B   26073.92189882  .00026561  00000+0  97139-3 0  9997
2 61960  43.0016 149.9833 0000634 289.7863  70.2920 15.27575786 75589
STARLINK-32452          
1 61961U 24210C   26073.53953611  .00049685  00000+0  18006-2 0  9991
2 61961  43.0003 145.3444 0002233 252.9251 107.1356 15.27622123 75732
STARLINK-32458          
1 61962U 24210D   26073.51480655  .00055373  00000+0  20039-2 0  9993
2 61962  43.0009 138.2373 0001690 268.7737  91.2921 15.27625284 75812
STARLINK-32487          
1 61963U 24210E   26073.62451210  .00042223  00000+0  15330-2 0  9999
2 61963  42.9992 152.0408 0001547 273.8561  86.2113 15.27625703 75664
